{"type": "FeatureCollection", "features": [ {"type": "Feature", "properties": {"norad_id": 31312, "name": "FENGYUN 1C DEB", "group": "fengyun-1c-debris", "lat": -60.18826235697946, "lon": -12.56594014880953, "alt_km": 876.4959647615815, "timestamp": "2025-12-11T22:43:47.550816+00:00", "meta": {"OBJECT_NAME": "FENGYUN 1C DEB", "OBJECT_ID": "1999-025BPQ", "EPOCH": "2025-12-10T11:38:58.756128", "MEAN_MOTION": 14.00915734, "ECCENTRICITY": 0.00579, "INCLINATION": 98.8587, "RA_OF_ASC_NODE": 330.2224, "ARG_OF_PERICENTER": 242.6838, "MEAN_ANOMALY": 247.7712, "EPHEMERIS_TYPE": 0, "CLASSIFICATION_TYPE": "U", "NORAD_CAT_ID": 31312, "ELEMENT_SET_NO": 999, "REV_AT_EPOCH": 95114, "BSTAR": 0.00075527153, "MEAN_MOTION_DOT": 1.103e-05, "MEAN_MOTION_DDOT": 0}, "tle": {"line1": "1 31312U 99025BPQ 25344.48540227  .00001103  00000+0  75527-3 0  9998", "line2": "2 31312  98.8587 330.2224 0057900 242.6838 247.7712 14.00915734951141"}}, "geometry": {"type": "Point", "coordinates": [-12.56594014880953, -60.18826235697946]}}, {"type": "Feature", "properties": {"norad_id": 31313, "name": "FENGYUN 1C DEB", "group": "fengyun-1c-debris", "lat": -74.37647308853205, "lon": -75.59753018183353, "alt_km": 830.0223900022083, "timestamp": "2025-12-11T22:43:47.550825+00:00", "meta": {"OBJECT_NAME": "FENGYUN 1C DEB", "OBJECT_ID": "1999-025BPR", "EPOCH": "2025-12-10T16:42:12.321216", "MEAN_MOTION": 14.22269804, "ECCENTRICITY": 0.00445438, "INCLINATION": 99.015, "RA_OF_ASC_NODE": 248.5342, "ARG_OF_PERICENTER": 187.0827, "MEAN_ANOMALY": 172.9726, "EPHEMERIS_TYPE": 0, "CLASSIFICATION_TYPE": "U", "NORAD_CAT_ID": 31313, "ELEMENT_SET_NO": 999, "REV_AT_EPOCH": 97033, "BSTAR": 0.00045183078, "MEAN_MOTION_DOT": 9.67e-06, "MEAN_MOTION_DDOT": 0}, "tle": {"line1": "1 31313U 99025BPR 25344.69597594  .00000967  00000+0  45183-3 0  9993", "line2": "2 31313  99.0150 248.5342 0044543 187.0827 172.9726 14.22269804970332"}}, "geometry": {"type": "Point", "coordinates": [-75.59753018183353, -74.37647308853205]}}, {"type": "Feature", "properties": {"norad_id": 31314, "name": "FENGYUN 1C DEB", "group": "fengyun-1c-debris", "lat": 21.09126263147578, "lon": -23.45510084045184, "alt_km": 823.2130964913158, "timestamp": "2025-12-11T22:43:47.550836+00:00", "meta": {"OBJECT_NAME": "FENGYUN 1C DEB", "OBJECT_ID": "1999-025BPS", "EPOCH": "2025-12-06T05:53:33.958752", "MEAN_MOTION": 14.04913607, "ECCENTRICITY": 0.00791603, "INCLINATION": 98.8218, "RA_OF_ASC_NODE": 334.4356, "ARG_OF_PERICENTER": 15.6231, "MEAN_ANOMALY": 344.7353, "EPHEMERIS_TYPE": 0, "CLASSIFICATION_TYPE": "U", "NORAD_CAT_ID": 31314, "ELEMENT_SET_NO": 999, "REV_AT_EPOCH": 60723, "BSTAR": 0.00045752491, "MEAN_MOTION_DOT": 7.13e-06, "MEAN_MOTION_DDOT": 0}, "tle": {"line1": "1 31314U 99025BPS 25340.24553193  .00000713  00000+0  45752-3 0  9999", "line2": "2 31314  98.8218 334.4356 0079160  15.6231 344.7353 14.04913607607231"}}, "geometry": {"type": "Point", "coordinates": [-23.45510084045184, 21.09126263147578]}}, {"type": "Feature", "properties": {"norad_id": 31319, "name": "FENGYUN 1C DEB", "group": "fengyun-1c-debris", "lat": -33.85856228960159, "lon": -109.19662332055933, "alt_km": 1052.1652892517159, "timestamp": "2025-12-11T22:43:47.550846+00:00", "meta": {"OBJECT_NAME": "FENGYUN 1C DEB", "OBJECT_ID": "1999-025BPX", "EPOCH": "2025-12-11T16:03:37.399968", "MEAN_MOTION": 13.75827635, "ECCENTRICITY": 0.01706305, "INCLINATION": 98.8308, "RA_OF_ASC_NODE": 244.559, "ARG_OF_PERICENTER": 89.7809, "MEAN_ANOMALY": 301.9758, "EPHEMERIS_TYPE": 0, "CLASSIFICATION_TYPE": "U", "NORAD_CAT_ID": 31319, "ELEMENT_SET_NO": 999, "REV_AT_EPOCH": 93673, "BSTAR": 0.00023941976, "MEAN_MOTION_DOT": 2.19e-06, "MEAN_MOTION_DDOT": 0}, "tle": {"line1": "1 31319U 99025BPX 25345.66918287  .00000219  00000+0  23942-3 0  9992", "line2": "2 31319  98.8308 244.5590 0170630  89.7809 301.9758 13.75827635936730"}}, "geometry": {"type": "Point", "coordinates": [-109.19662332055933, -33.85856228960159]}}, {"type": "Feature", "properties": {"norad_id": 31321, "name": "FENGYUN 1C DEB", "group": "fengyun-1c-debris", "lat": 28.638696308450935, "lon": -110.34981935300605, "alt_km": 826.4420881794322, "timestamp": "2025-12-11T22:43:47.550855+00:00", "meta": {"OBJECT_NAME": "FENGYUN 1C DEB", "OBJECT_ID": "1999-025BPZ", "EPOCH": "2025-11-28T23:11:37.489632", "MEAN_MOTION": 14.13809948, "ECCENTRICITY": 0.00293651, "INCLINATION": 98.7348, "RA_OF_ASC_NODE": 52.1537, "ARG_OF_PERICENTER": 217.1862, "MEAN_ANOMALY": 142.7277, "EPHEMERIS_TYPE": 0, "CLASSIFICATION_TYPE": "U", "NORAD_CAT_ID": 31321, "ELEMENT_SET_NO": 999, "REV_AT_EPOCH": 57189, "BSTAR": 0.00017233355, "MEAN_MOTION_DOT": 2.84e-06, "MEAN_MOTION_DDOT": 0}, "tle": {"line1": "1 31321U 99025BPZ 25332.96640613  .00000284  00000+0  17233-3 0  9997", "line2": "2 31321  98.7348  52.1537 0029365 217.1862 142.7277 14.13809948571893"}}, "geometry": {"type": "Point", "coordinates": [-110.34981935300605, 28.638696308450935]}}, {"type": "Feature", "properties": {"norad_id": 31322, "name": "FENGYUN 1C DEB", "group": "fengyun-1c-debris", "lat": -57.89821573173046, "lon": 63.71965468081985, "alt_km": 935.6015214943272, "timestamp": "2025-12-11T22:43:47.550865+00:00", "meta": {"OBJECT_NAME": "FENGYUN 1C DEB", "OBJECT_ID": "1999-025BQA", "EPOCH": "2025-12-08T23:52:58.153728", "MEAN_MOTION": 13.72994467, "ECCENTRICITY": 0.0238726, "INCLINATION": 98.5739, "RA_OF_ASC_NODE": 47.1579, "ARG_OF_PERICENTER": 20.2617, "MEAN_ANOMALY": 100.4309, "EPHEMERIS_TYPE": 0, "CLASSIFICATION_TYPE": "U", "NORAD_CAT_ID": 31322, "ELEMENT_SET_NO": 999, "REV_AT_EPOCH": 62224, "BSTAR": 0.00026306, "MEAN_MOTION_DOT": 2.61e-06, "MEAN_MOTION_DDOT": 0}, "tle": {"line1": "1 31322U 99025BQA 25342.99511752  .00000261  00000+0  26306-3 0  9999", "line2": "2 31322  98.5739  47.1579 0238726  20.2617 100.4309 13.72994467622248"}}, "geometry": {"type": "Point", "coordinates": [63.71965468081985, -57.89821573173046]}}, {"type": "Feature", "properties": {"norad_id": 31323, "name": "FENGYUN 1C DEB", "group": "fengyun-1c-debris", "lat": 63.32560879957012, "lon": 5.058095753417751, "alt_km": 771.9368591621933, "timestamp": "2025-12-11T22:43:47.550875+00:00", "meta": {"OBJECT_NAME": "FENGYUN 1C DEB", "OBJECT_ID": "1999-025BQB", "EPOCH": "2025-12-11T08:58:16.312224", "MEAN_MOTION": 14.27576634, "ECCENTRICITY": 0.00315597, "INCLINATION": 99.4208, "RA_OF_ASC_NODE": 23.7385, "ARG_OF_PERICENTER": 83.7783, "MEAN_ANOMALY": 276.6989, "EPHEMERIS_TYPE": 0, "CLASSIFICATION_TYPE": "U", "NORAD_CAT_ID": 31323, "ELEMENT_SET_NO": 999, "REV_AT_EPOCH": 63961, "BSTAR": 0.0024488231, "MEAN_MOTION_DOT": 6.012e-05, "MEAN_MOTION_DDOT": 0}, "tle": {"line1": "1 31323U 99025BQB 25345.37379991  .00006012  00000+0  24488-2 0  9990", "line2": "2 31323  99.4208  23.7385 0031559  83.7783 276.6989 14.27576634639610"}}, "geometry": {"type": "Point", "coordinates": [5.058095753417751, 63.32560879957012]}}, {"type": "Feature", "properties": {"norad_id": 31324, "name": "FENGYUN 1C DEB", "group": "fengyun-1c-debris", "lat": -30.185557440587445, "lon": 82.04164827806436, "alt_km": 852.8185000089361, "timestamp": "2025-12-11T22:43:47.550885+00:00", "meta": {"OBJECT_NAME": "FENGYUN 1C DEB", "OBJECT_ID": "1999-025BQC", "EPOCH": "2025-12-10T13:28:55.879104", "MEAN_MOTION": 14.14692214, "ECCENTRICITY": 0.0049382, "INCLINATION": 99.1235, "RA_OF_ASC_NODE": 265.99, "ARG_OF_PERICENTER": 310.451, "MEAN_ANOMALY": 49.2361, "EPHEMERIS_TYPE": 0, "CLASSIFICATION_TYPE": "U", "NORAD_CAT_ID": 31324, "ELEMENT_SET_NO": 999, "REV_AT_EPOCH": 96455, "BSTAR": 0.00029196, "MEAN_MOTION_DOT": 5.21e-06, "MEAN_MOTION_DDOT": 0}, "tle": {"line1": "1 31324U 99025BQC 25344.56175786  .00000521  00000+0  29196-3 0  9998", "line2": "2 31324  99.1235 265.9900 0049382 310.4510  49.2361 14.14692214964553"}}, "geometry": {"type": "Point", "coordinates": [82.04164827806436, -30.185557440587445]}}, {"type": "Feature", "properties": {"norad_id": 31325, "name": "FENGYUN 1C DEB", "group": "fengyun-1c-debris", "lat": 63.30255337745501, "lon": -81.5541818840771, "alt_km": 844.8994303498239, "timestamp": "2025-12-11T22:43:47.550895+00:00", "meta": {"OBJECT_NAME": "FENGYUN 1C DEB", "OBJECT_ID": "1999-025BQD", "EPOCH": "2025-12-08T12:49:45.026688", "MEAN_MOTION": 14.16832394, "ECCENTRICITY": 0.0071877, "INCLINATION": 98.9914, "RA_OF_ASC_NODE": 76.6463, "ARG_OF_PERICENTER": 232.309, "MEAN_ANOMALY": 127.1552, "EPHEMERIS_TYPE": 0, "CLASSIFICATION_TYPE": "U", "NORAD_CAT_ID": 31325, "ELEMENT_SET_NO": 999, "REV_AT_EPOCH": 59718, "BSTAR": 0.0032596677, "MEAN_MOTION_DOT": 6.657e-05, "MEAN_MOTION_DDOT": 0}, "tle": {"line1": "1 31325U 99025BQD 25342.53454892  .00006657  00000+0  32597-2 0  9996", "line2": "2 31325  98.9914  76.6463 0071877 232.3090 127.1552 14.16832394597181"}}, "geometry": {"type": "Point", "coordinates": [-81.5541818840771, 63.30255337745501]}}, {"type": "Feature", "properties": {"norad_id": 31326, "name": "FENGYUN 1C DEB", "group": "fengyun-1c-debris", "lat": -12.309116316889515, "lon": 45.82378531068157, "alt_km": 578.1006703996463, "timestamp": "2025-12-11T22:43:47.550905+00:00", "meta": {"OBJECT_NAME": "FENGYUN 1C DEB", "OBJECT_ID": "1999-025BQE", "EPOCH": "2025-11-25T14:42:32.298048", "MEAN_MOTION": 14.96360134, "ECCENTRICITY": 0.00187059, "INCLINATION": 99.013, "RA_OF_ASC_NODE": 208.9742, "ARG_OF_PERICENTER": 1.9794, "MEAN_ANOMALY": 358.1494, "EPHEMERIS_TYPE": 0, "CLASSIFICATION_TYPE": "U", "NORAD_CAT_ID": 31326, "ELEMENT_SET_NO": 999, "REV_AT_EPOCH": 73489, "BSTAR": 0.0084230344, "MEAN_MOTION_DOT": 0.00096893, "MEAN_MOTION_DDOT": 0}, "tle": {"line1": "1 31326U 99025BQE 25329.61287382  .00096893  00000+0  84230-2 0  9991", "line2": "2 31326  99.0130 208.9742 0018705   1.9794 358.1494 14.96360134734894"}}, "geometry": {"type": "Point", "coordinates": [45.82378531068157, -12.309116316889515]}}]}